start=new Date('2023-01-04T00:00:00.000Z').valueOf();
sats=[{"CENTER_NAME":"EARTH","FILE":"3730738","ARG_OF_PERICENTER":"81.2748","MEAN_MOTION_DDOT":"0.0000000000000","RCS_SIZE":"LARGE","APOAPSIS":"548.223","MEAN_MOTION_DOT":"0.00002687","EPHEMERIS_TYPE":"0","OBJECT_NAME":"STARLINK-2550","ECCENTRICITY":"0.00014950","COUNTRY_CODE":"US","CLASSIFICATION_TYPE":"U","LAUNCH_DATE":"2021-04-29","TLE_LINE2":"2 48293  53.0536 253.2632 0001495  81.2748 278.8411 15.06408467 93916","PERIOD":"95.592","EPOCH":"2023-01-03T18:08:53.861280","RA_OF_ASC_NODE":"253.2632","ELEMENT_SET_NO":"999","REF_FRAME":"TEME","MEAN_MOTION":"15.06408467","PERIAPSIS":"546.152","GP_ID":"222085721","REV_AT_EPOCH":"9391","MEAN_ANOMALY":"278.8411","DECAY_DATE":null,"INCLINATION":"53.0536","OBJECT_ID":"2021-036T","OBJECT_TYPE":"PAYLOAD","TLE_LINE1":"1 48293U 21036T   23003.75617895  .00002687  00000-0  19914-3 0  9994","TIME_SYSTEM":"UTC","BSTAR":"0.00019914000000","MEAN_ELEMENT_THEORY":"SGP4","SITE":"AFETR","NORAD_CAT_ID":"48293","SEMIMAJOR_AXIS":"6925.323"},{"SITE":"AFETR","NORAD_CAT_ID":"48294","SEMIMAJOR_AXIS":"6925.388","TLE_LINE1":"1 48294U 21036U   23003.68614661  .00003124  00000-0  22863-3 0  9999","TIME_SYSTEM":"UTC","BSTAR":"0.00022863000000","MEAN_ELEMENT_THEORY":"SGP4","DECAY_DATE":null,"INCLINATION":"53.0559","OBJECT_ID":"2021-036U","OBJECT_TYPE":"PAYLOAD","MEAN_MOTION":"15.06387287","GP_ID":"222086298","REV_AT_EPOCH":"9390","PERIAPSIS":"546.219","MEAN_ANOMALY":"271.6464","EPOCH":"2023-01-03T16:28:03.067104","RA_OF_ASC_NODE":"253.5735","ELEMENT_SET_NO":"999","REF_FRAME":"TEME","CLASSIFICATION_TYPE":"U","LAUNCH_DATE":"2021-04-29","TLE_LINE2":"2 48294  53.0559 253.5735 0001493  88.4696 271.6464 15.06387287 93902","PERIOD":"95.593","APOAPSIS":"548.286","EPHEMERIS_TYPE":"0","MEAN_MOTION_DOT":"0.00003124","OBJECT_NAME":"STARLINK-2533","ECCENTRICITY":"0.00014930","COUNTRY_CODE":"US","FILE":"3730781","CENTER_NAME":"EARTH","ARG_OF_PERICENTER":"88.4696","MEAN_MOTION_DDOT":"0.0000000000000","RCS_SIZE":"LARGE"},{"PERIOD":"95.592","TLE_LINE2":"2 48295  53.0505 254.4841 0001455 107.1581 252.9568 15.06403938 93293","LAUNCH_DATE":"2021-04-29","CLASSIFICATION_TYPE":"U","ELEMENT_SET_NO":"999","REF_FRAME":"TEME","RA_OF_ASC_NODE":"254.4841","EPOCH":"2023-01-03T11:36:07.992576","RCS_SIZE":"LARGE","ARG_OF_PERICENTER":"107.1581","MEAN_MOTION_DDOT":"0.0000000000000","CENTER_NAME":"EARTH","FILE":"3730926","COUNTRY_CODE":"US","ECCENTRICITY":"0.00014550","EPHEMERIS_TYPE":"0","MEAN_MOTION_DOT":"0.00013867","OBJECT_NAME":"STARLINK-2535","APOAPSIS":"548.209","MEAN_ELEMENT_THEORY":"SGP4","BSTAR":"0.00094789000000","TLE_LINE1":"1 48295U 21036V   23003.48342584  .00013867  00000-0  94789-3 0  9991","TIME_SYSTEM":"UTC","SEMIMAJOR_AXIS":"6925.336","SITE":"AFETR","NORAD_CAT_ID":"48295","MEAN_ANOMALY":"252.9568","GP_ID":"222112219","REV_AT_EPOCH":"9329","PERIAPSIS":"546.194","MEAN_MOTION":"15.06403938","OBJECT_TYPE":"PAYLOAD","OBJECT_ID":"2021-036V","INCLINATION":"53.0505","DECAY_DATE":null},{"INCLINATION":"53.0535","DECAY_DATE":null,"OBJECT_ID":"2021-036W","OBJECT_TYPE":"PAYLOAD","MEAN_MOTION":"15.06400835","REV_AT_EPOCH":"9328","GP_ID":"222110989","PERIAPSIS":"546.219","MEAN_ANOMALY":"257.9825","SITE":"AFETR","NORAD_CAT_ID":"48296","SEMIMAJOR_AXIS":"6925.346","TLE_LINE1":"1 48296U 21036W   23003.41337994  .00004786  00000-0  33996-3 0  9997","TIME_SYSTEM":"UTC","BSTAR":"0.00033996000000","MEAN_ELEMENT_THEORY":"SGP4","APOAPSIS":"548.203","MEAN_MOTION_DOT":"0.00004786","EPHEMERIS_TYPE":"0","OBJECT_NAME":"STARLINK-2546","ECCENTRICITY":"0.00014320","COUNTRY_CODE":"US","FILE":"3730926","CENTER_NAME":"EARTH","ARG_OF_PERICENTER":"102.1325","MEAN_MOTION_DDOT":"0.0000000000000","RCS_SIZE":"LARGE","RA_OF_ASC_NODE":"254.7959","EPOCH":"2023-01-03T09:55:16.026816","ELEMENT_SET_NO":"999","REF_FRAME":"TEME","LAUNCH_DATE":"2021-04-29","CLASSIFICATION_TYPE":"U","TLE_LINE2":"2 48296  53.0535 254.7959 0001432 102.1325 257.9825 15.06400835 93289","PERIOD":"95.592"},{"CENTER_NAME":"EARTH","FILE":"3730759","MEAN_MOTION_DDOT":"0.0000000000000","ARG_OF_PERICENTER":"74.3771","RCS_SIZE":"LARGE","APOAPSIS":"548.222","MEAN_MOTION_DOT":"0.00005003","EPHEMERIS_TYPE":"0","OBJECT_NAME":"STARLINK-2544","ECCENTRICITY":"0.00014680","COUNTRY_CODE":"US","LAUNCH_DATE":"2021-04-29","CLASSIFICATION_TYPE":"U","TLE_LINE2":"2 48297  53.0538 253.3241 0001468  74.3771 285.7379 15.06402614 93916","PERIOD":"95.592","RA_OF_ASC_NODE":"253.3241","EPOCH":"2023-01-03T17:47:39.661728","ELEMENT_SET_NO":"999","REF_FRAME":"TEME","MEAN_MOTION":"15.06402614","GP_ID":"222085896","PERIAPSIS":"546.189","REV_AT_EPOCH":"9391","MEAN_ANOMALY":"285.7379","DECAY_DATE":null,"INCLINATION":"53.0538","OBJECT_ID":"2021-036X","OBJECT_TYPE":"PAYLOAD","TLE_LINE1":"1 48297U 21036X   23003.74143127  .00005003  00000-0  35448-3 0  9994","TIME_SYSTEM":"UTC","BSTAR":"0.00035448000000","MEAN_ELEMENT_THEORY":"SGP4","SITE":"AFETR","NORAD_CAT_ID":"48297","SEMIMAJOR_AXIS":"6925.341"},{"MEAN_ANOMALY":"301.9712","GP_ID":"222112490","REV_AT_EPOCH":"9329","PERIAPSIS":"545.955","MEAN_MOTION":"15.06401997","OBJECT_TYPE":"PAYLOAD","OBJECT_ID":"2021-036Y","INCLINATION":"53.0531","DECAY_DATE":null,"MEAN_ELEMENT_THEORY":"SGP4","BSTAR":"0.00061823000000","TIME_SYSTEM":"UTC","TLE_LINE1":"1 48298U 21036Y   23003.47236513  .00008939  00000-0  61823-3 0  9994","SEMIMAJOR_AXIS":"6925.342","NORAD_CAT_ID":"48298","SITE":"AFETR","RCS_SIZE":"LARGE","ARG_OF_PERICENTER":"58.1453","MEAN_MOTION_DDOT":"0.0000000000000","CENTER_NAME":"EARTH","FILE":"3730926","COUNTRY_CODE":"US","ECCENTRICITY":"0.00018090","OBJECT_NAME":"STARLINK-2559","EPHEMERIS_TYPE":"0","MEAN_MOTION_DOT":"0.00008939","APOAPSIS":"548.460","PERIOD":"95.592","TLE_LINE2":"2 48298  53.0531 254.5400 0001809  58.1453 301.9712 15.06401997 93292","CLASSIFICATION_TYPE":"U","LAUNCH_DATE":"2021-04-29","REF_FRAME":"TEME","ELEMENT_SET_NO":"999","EPOCH":"2023-01-03T11:20:12.347232","RA_OF_ASC_NODE":"254.5400"},{"MEAN_ANOMALY":"286.6989","MEAN_MOTION":"15.06384923","GP_ID":"222086789","REV_AT_EPOCH":"9391","PERIAPSIS":"546.114","OBJECT_ID":"2021-036Z","OBJECT_TYPE":"PAYLOAD","DECAY_DATE":null,"INCLINATION":"53.0550","BSTAR":"0.00003889700000","MEAN_ELEMENT_THEORY":"SGP4","TIME_SYSTEM":"UTC","TLE_LINE1":"1 48299U 21036Z   23003.73405095  .00000298  00000-0  38897-4 0  9993","SEMIMAJOR_AXIS":"6925.395","NORAD_CAT_ID":"48299","SITE":"AFETR","RCS_SIZE":"LARGE","FILE":"3730780","CENTER_NAME":"EARTH","MEAN_MOTION_DDOT":"0.0000000000000","ARG_OF_PERICENTER":"73.4181","ECCENTRICITY":"0.00016550","COUNTRY_CODE":"US","APOAPSIS":"548.406","OBJECT_NAME":"STARLINK-2557","EPHEMERIS_TYPE":"0","MEAN_MOTION_DOT":"0.00000298","TLE_LINE2":"2 48299  53.0550 253.3480 0001655  73.4181 286.6989 15.06384923 93919","PERIOD":"95.593","CLASSIFICATION_TYPE":"U","LAUNCH_DATE":"2021-04-29","REF_FRAME":"TEME","ELEMENT_SET_NO":"999","RA_OF_ASC_NODE":"253.3480","EPOCH":"2023-01-03T17:37:02.002080"},{"OBJECT_ID":"2021-036AA","OBJECT_TYPE":"PAYLOAD","INCLINATION":"53.0560","DECAY_DATE":null,"MEAN_ANOMALY":"291.0545","MEAN_MOTION":"15.06405898","REV_AT_EPOCH":"9377","GP_ID":"222085413","PERIAPSIS":"545.712","SEMIMAJOR_AXIS":"6925.330","SITE":"AFETR","NORAD_CAT_ID":"48300","BSTAR":"0.00023875000000","MEAN_ELEMENT_THEORY":"SGP4","TLE_LINE1":"1 48300U 21036AA  23003.72574571  .00003277  00000-0  23875-3 0  9990","TIME_SYSTEM":"UTC","ECCENTRICITY":"0.00021420","COUNTRY_CODE":"US","APOAPSIS":"548.679","EPHEMERIS_TYPE":"0","MEAN_MOTION_DOT":"0.00003277","OBJECT_NAME":"STARLINK-2538","RCS_SIZE":"LARGE","FILE":"3730751","CENTER_NAME":"EARTH","ARG_OF_PERICENTER":"69.0673","MEAN_MOTION_DDOT":"0.0000000000000","ELEMENT_SET_NO":"999","REF_FRAME":"TEME","EPOCH":"2023-01-03T17:25:04.429344","RA_OF_ASC_NODE":"263.3809","TLE_LINE2":"2 48300  53.0560 263.3809 0002142  69.0673 291.0545 15.06405898 93775","PERIOD":"95.592","LAUNCH_DATE":"2021-04-29","CLASSIFICATION_TYPE":"U"},{"LAUNCH_DATE":"2021-04-29","CLASSIFICATION_TYPE":"U","PERIOD":"95.592","TLE_LINE2":"2 48301  53.0526 264.6023 0001559 106.2513 253.8647 15.06401775 93148","EPOCH":"2023-01-03T10:57:37.436256","RA_OF_ASC_NODE":"264.6023","REF_FRAME":"TEME","ELEMENT_SET_NO":"999","ARG_OF_PERICENTER":"106.2513","MEAN_MOTION_DDOT":"0.0000000000000","CENTER_NAME":"EARTH","FILE":"3730926","RCS_SIZE":"LARGE","OBJECT_NAME":"STARLINK-2537","EPHEMERIS_TYPE":"0","MEAN_MOTION_DOT":"0.00002014","APOAPSIS":"548.288","COUNTRY_CODE":"US","ECCENTRICITY":"0.00015590","TIME_SYSTEM":"UTC","TLE_LINE1":"1 48301U 21036AB  23003.45668329  .00002014  00000-0  15409-3 0  9998","MEAN_ELEMENT_THEORY":"SGP4","BSTAR":"0.00015409000000","NORAD_CAT_ID":"48301","SITE":"AFETR","SEMIMAJOR_AXIS":"6925.343","GP_ID":"222111740","PERIAPSIS":"546.128","REV_AT_EPOCH":"9314","MEAN_MOTION":"15.06401775","MEAN_ANOMALY":"253.8647","INCLINATION":"53.0526","DECAY_DATE":null,"OBJECT_TYPE":"PAYLOAD","OBJECT_ID":"2021-036AB"},{"RCS_SIZE":"LARGE","CENTER_NAME":"EARTH","FILE":"3730926","MEAN_MOTION_DDOT":"0.0000000000000","ARG_OF_PERICENTER":"103.0475","ECCENTRICITY":"0.00015440","COUNTRY_CODE":"US","APOAPSIS":"548.267","OBJECT_NAME":"STARLINK-2556","MEAN_MOTION_DOT":"0.00008533","EPHEMERIS_TYPE":"0","TLE_LINE2":"2 48302  53.0548 264.6107 0001544 103.0475 257.0686 15.06405173 93147","PERIOD":"95.592","LAUNCH_DATE":"2021-04-29","CLASSIFICATION_TYPE":"U","REF_FRAME":"TEME","ELEMENT_SET_NO":"999","EPOCH":"2023-01-03T10:52:19.182720","RA_OF_ASC_NODE":"264.6107","MEAN_ANOMALY":"257.0686","MEAN_MOTION":"15.06405173","PERIAPSIS":"546.128","GP_ID":"222111990","REV_AT_EPOCH":"9314","OBJECT_ID":"2021-036AC","OBJECT_TYPE":"PAYLOAD","DECAY_DATE":null,"INCLINATION":"53.0548","BSTAR":"0.00059096000000","MEAN_ELEMENT_THEORY":"SGP4","TIME_SYSTEM":"UTC","TLE_LINE1":"1 48302U 21036AC  23003.45299980  .00008533  00000-0  59096-3 0  9994","SEMIMAJOR_AXIS":"6925.333","NORAD_CAT_ID":"48302","SITE":"AFETR"}];
